OBJECT_NAME,OBJECT_ID,EPOCH,MEAN_MOTION,ECCENTRICITY,INCLINATION,RA_OF_ASC_NODE,ARG_OF_PERICENTER,MEAN_ANOMALY,EPHEMERIS_TYPE,CLASSIFICATION_TYPE,NORAD_CAT_ID,ELEMENT_SET_NO,REV_AT_EPOCH,BSTAR,MEAN_MOTION_DOT,MEAN_MOTION_DDOT
HST,1990-037B,2026-06-07T07:09:32.201568,15.30642118,.0001938,28.4712,148.1547,44.7656,315.3096,0,U,20580,999,78705,.18954E-3,.601E-4,0
POLAR,1996-013A,2026-06-07T00:34:37.743744,1.29846147,.64604658,79.8419,227.1714,209.4311,89.2180,0,U,23802,999,14472,0,.119E-5,0
SWAS,1998-071A,2026-06-08T12:49:17.440032,15.09572739,.0008945,69.8962,249.8323,267.6953,92.3187,0,U,25560,999,49596,.27822E-3,.4378E-4,0
CXO,1999-040B,2026-06-10T10:37:10.661664,0.37805334,.78525481,56.0540,116.8503,310.2578,0.2529,0,U,25867,999,1729,0,.667E-5,0
XMM-NEWTON,1999-066A,2026-06-10T08:49:38.701920,0.50122831,.4677764,64.5271,283.0748,65.0342,0.0416,0,U,25989,999,2297,0,.89E-6,0
TERRA,1999-068A,2026-06-08T11:15:48.345984,14.61096449,.0000952,97.9459,209.3609,230.9637,253.7925,0,U,25994,999,40833,.931E-4,.413E-5,0
CLUSTER II-FM7 (SAMBA),2000-041A,2026-06-10T10:42:37.437696,0.44840364,.9048191,149.9132,49.6129,266.6863,359.9829,0,U,26410,999,2028,0,.4459E-4,0
CLUSTER II-FM8 (TANGO),2000-045B,2026-06-06T04:22:15.257856,0.44406384,.90462015,150.1407,49.6985,266.6195,3.2041,0,U,26464,999,2026,0,.4544E-4,0
ODIN,2001-007A,2026-06-08T01:38:43.385280,15.72855402,.00066078,97.3856,199.4433,154.2551,205.9043,0,U,26702,999,38796,.11909604E-2,.16393E-2,0
TIMED,2001-055B,2026-06-08T09:03:26.591040,14.95275446,.0000621,74.0679,252.7563,353.4262,6.6915,0,U,26998,999,32950,.13277E-3,.1423E-4,0
CORIOLIS,2003-001A,2026-06-08T11:01:41.516256,14.19942465,.0012977,98.7126,166.4776,235.5174,124.4777,0,U,27640,999,21298,.68462E-4,.102E-5,0
SORCE,2003-004A,2026-06-07T17:00:24.400800,15.03662902,.0017869,39.9917,315.7552,339.7662,20.2423,0,U,27651,999,27047,.25720271E-3,.3445E-4,0
MOST,2003-031D,2026-06-08T11:34:12.131040,14.21320733,.0008698,98.7045,167.3295,278.9664,81.0529,0,U,27843,999,18947,.53559E-4,.73E-6,0
SCISAT 1,2003-036A,2026-06-08T12:20:34.541952,14.81439452,.0008688,73.9287,188.5750,257.5169,102.5035,0,U,27858,999,23016,.7986E-4,.589E-5,0
SWIFT,2004-047A,2026-06-06T15:00:13.912128,15.67271412,.0002758,20.5528,266.3162,138.0120,222.0537,0,U,28485,999,18520,.53892E-3,.61964E-3,0
HINODE (SOLAR-B),2006-041A,2026-06-08T11:08:49.926336,14.68611163,.0016414,98.0548,175.7455,319.6622,40.3365,0,U,29479,999,5359,.13885E-3,.759E-5,0
SHIJIAN-6 02A (SJ-6 02A),2006-046A,2026-06-08T12:23:02.488992,15.16843213,.0003685,97.6367,200.5181,145.2041,214.9433,0,U,29505,999,7095,.37071E-3,.7226E-4,0
SHIJIAN-6 02B (SJ-6 02B),2006-046B,2026-06-08T11:34:23.403648,15.01356666,.0014746,97.7163,188.5948,85.5433,274.7476,0,U,29506,999,6943,.15392E-3,.1926E-4,0
FGRST (GLAST),2008-029A,2026-06-07T23:54:17.430048,15.23903473,.00078301,25.5826,268.3003,214.9845,145.0179,0,U,33053,999,99443,.14870933E-3,.4036E-4,0
SDO,2010-005A,2026-06-08T07:45:40.928832,1.00270840,.0001516,34.6325,86.4781,53.0773,131.5755,0,U,36395,999,5997,0,-.6E-6,0
CRYOSAT 2,2010-013A,2026-06-08T12:50:58.249824,14.51896687,.0002225,92.0348,275.1990,86.2057,273.9405,0,U,36508,999,85682,.34937E-4,.144E-5,0
X-SAT,2011-015C,2026-06-08T12:28:53.061312,14.25203325,.0014536,98.3512,136.9567,13.6110,346.5460,0,U,37389,999,78644,.27112E-4,.23E-6,0
GCOM-W1 (SHIZUKU),2012-025A,2026-06-08T11:01:27.026112,14.57116665,.0001859,98.2020,100.1473,81.4179,33.1938,0,U,38337,999,74776,.11924E-3,.492E-5,0
NUSTAR,2012-031A,2026-06-08T14:00:04.000032,15.08723023,.0008544,6.0267,98.6689,330.5459,58.1148,0,U,38358,999,130,.36321E-3,.6736E-4,0
NEOSSAT,2013-009D,2026-06-08T11:58:07.087296,14.35823426,.0009789,98.4176,339.7382,272.8783,87.1283,0,U,39089,999,69549,.66688E-4,.15E-5,0
BRITE-AUSTRIA,2013-009F,2026-06-08T12:02:21.759936,14.36538756,.0008963,98.3993,339.1526,265.8443,94.1719,0,U,39091,999,69580,.79283E-4,.19E-5,0
IRIS,2013-033A,2026-06-08T11:28:06.289248,14.85868163,.0024227,97.9336,358.7822,350.9910,9.0867,0,U,39197,999,69908,.1316E-3,.1096E-4,0
HISAKI (SPRINT-A),2013-049A,2026-06-08T12:16:39.772416,13.55543804,.0136894,29.7205,264.1203,306.5477,52.2561,0,U,39253,999,63024,.90098E-4,.132E-5,0
CASSIOPE,2013-055A,2026-06-08T11:59:51.402336,15.24403002,.0295603,80.9146,77.2632,91.5719,271.9392,0,U,39265,999,66634,.48204E-3,.43691E-3,-.54612E-6
STSAT-3,2013-066G,2026-06-08T12:33:11.330784,15.02704577,.0010958,97.6213,129.5512,67.6407,292.5978,0,U,39422,999,68290,.23768E-3,.3116E-4,0
SWARM B,2013-067A,2026-06-08T11:48:33.571008,15.28498830,.0003388,87.7441,344.9593,90.2959,269.8679,0,U,39451,999,68191,.12497E-3,.3499E-4,0
